<?xml version="1.0" encoding="UTF-8"?>
<ndm xmlns:xsi="http://www.w3.org/2001/XMLSchema-instance" xsi:noNamespaceSchemaLocation="https://sanaregistry.org/r/ndmxml_unqualified/ndmxml-2.0.0-master-2.0.xsd">
<omm id="CCSDS_OMM_VERS" version="2.0">
<header><CREATION_DATE/><ORIGINATOR/></header><body><segment><metadata><OBJECT_NAME>ONEWEB-0203</OBJECT_NAME><OBJECT_ID>2021-031AB</OBJECT_ID><CENTER_NAME>EARTH</CENTER_NAME><REF_FRAME>TEME</REF_FRAME><TIME_SYSTEM>UTC</TIME_SYSTEM><MEAN_ELEMENT_THEORY>SGP4</MEAN_ELEMENT_THEORY></metadata><data><meanElements><EPOCH>2023-10-31T22:30:12.169440</EPOCH><MEAN_MOTION>13.14505211</MEAN_MOTION><ECCENTRICITY>.0001477</ECCENTRICITY><INCLINATION>87.8936</INCLINATION><RA_OF_ASC_NODE>120.6471</RA_OF_ASC_NODE><ARG_OF_PERICENTER>75.3695</ARG_OF_PERICENTER><MEAN_ANOMALY>284.7599</MEAN_ANOMALY></meanElements><tleParameters><EPHEMERIS_TYPE>0</EPHEMERIS_TYPE><CLASSIFICATION_TYPE>U</CLASSIFICATION_TYPE><NORAD_CAT_ID>48235</NORAD_CAT_ID><ELEMENT_SET_NO>999</ELEMENT_SET_NO><REV_AT_EPOCH>12225</REV_AT_EPOCH><BSTAR>.61599E-3</BSTAR><MEAN_MOTION_DOT>.241E-5</MEAN_MOTION_DOT><MEAN_MOTION_DDOT>0</MEAN_MOTION_DDOT></tleParameters></data></segment></body></omm>
<omm id="CCSDS_OMM_VERS" version="2.0">
<header><CREATION_DATE/><ORIGINATOR/></header><body><segment><metadata><OBJECT_NAME>ONEWEB-0197</OBJECT_NAME><OBJECT_ID>2021-031AC</OBJECT_ID><CENTER_NAME>EARTH</CENTER_NAME><REF_FRAME>TEME</REF_FRAME><TIME_SYSTEM>UTC</TIME_SYSTEM><MEAN_ELEMENT_THEORY>SGP4</MEAN_ELEMENT_THEORY></metadata><data><meanElements><EPOCH>2023-10-31T22:11:39.382368</EPOCH><MEAN_MOTION>13.14495301</MEAN_MOTION><ECCENTRICITY>.0001767</ECCENTRICITY><INCLINATION>87.8936</INCLINATION><RA_OF_ASC_NODE>120.6581</RA_OF_ASC_NODE><ARG_OF_PERICENTER>90.8017</ARG_OF_PERICENTER><MEAN_ANOMALY>269.3315</MEAN_ANOMALY></meanElements><tleParameters><EPHEMERIS_TYPE>0</EPHEMERIS_TYPE><CLASSIFICATION_TYPE>U</CLASSIFICATION_TYPE><NORAD_CAT_ID>48236</NORAD_CAT_ID><ELEMENT_SET_NO>999</ELEMENT_SET_NO><REV_AT_EPOCH>12216</REV_AT_EPOCH><BSTAR>-.43058E-3</BSTAR><MEAN_MOTION_DOT>-.147E-5</MEAN_MOTION_DOT><MEAN_MOTION_DDOT>0</MEAN_MOTION_DDOT></tleParameters></data></segment></body></omm>
<omm id="CCSDS_OMM_VERS" version="2.0">
<header><CREATION_DATE/><ORIGINATOR/></header><body><segment><metadata><OBJECT_NAME>ONEWEB-0194</OBJECT_NAME><OBJECT_ID>2021-031AD</OBJECT_ID><CENTER_NAME>EARTH</CENTER_NAME><REF_FRAME>TEME</REF_FRAME><TIME_SYSTEM>UTC</TIME_SYSTEM><MEAN_ELEMENT_THEORY>SGP4</MEAN_ELEMENT_THEORY></metadata><data><meanElements><EPOCH>2023-10-31T21:26:15.612000</EPOCH><MEAN_MOTION>13.14504104</MEAN_MOTION><ECCENTRICITY>.0002337</ECCENTRICITY><INCLINATION>87.8935</INCLINATION><RA_OF_ASC_NODE>120.6537</RA_OF_ASC_NODE><ARG_OF_PERICENTER>82.1347</ARG_OF_PERICENTER><MEAN_ANOMALY>278.0048</MEAN_ANOMALY></meanElements><tleParameters><EPHEMERIS_TYPE>0</EPHEMERIS_TYPE><CLASSIFICATION_TYPE>U</CLASSIFICATION_TYPE><NORAD_CAT_ID>48237</NORAD_CAT_ID><ELEMENT_SET_NO>999</ELEMENT_SET_NO><REV_AT_EPOCH>12233</REV_AT_EPOCH><BSTAR>-.30664E-2</BSTAR><MEAN_MOTION_DOT>-.1124E-4</MEAN_MOTION_DOT><MEAN_MOTION_DDOT>0</MEAN_MOTION_DDOT></tleParameters></data></segment></body></omm>
<omm id="CCSDS_OMM_VERS" version="2.0">
<header><CREATION_DATE/><ORIGINATOR/></header><body><segment><metadata><OBJECT_NAME>ONEWEB-0193</OBJECT_NAME><OBJECT_ID>2021-031AE</OBJECT_ID><CENTER_NAME>EARTH</CENTER_NAME><REF_FRAME>TEME</REF_FRAME><TIME_SYSTEM>UTC</TIME_SYSTEM><MEAN_ELEMENT_THEORY>SGP4</MEAN_ELEMENT_THEORY></metadata><data><meanElements><EPOCH>2023-10-31T21:50:36.928896</EPOCH><MEAN_MOTION>13.14507794</MEAN_MOTION><ECCENTRICITY>.000136</ECCENTRICITY><INCLINATION>87.8937</INCLINATION><RA_OF_ASC_NODE>120.6597</RA_OF_ASC_NODE><ARG_OF_PERICENTER>89.1278</ARG_OF_PERICENTER><MEAN_ANOMALY>271.0007</MEAN_ANOMALY></meanElements><tleParameters><EPHEMERIS_TYPE>0</EPHEMERIS_TYPE><CLASSIFICATION_TYPE>U</CLASSIFICATION_TYPE><NORAD_CAT_ID>48238</NORAD_CAT_ID><ELEMENT_SET_NO>999</ELEMENT_SET_NO><REV_AT_EPOCH>12228</REV_AT_EPOCH><BSTAR>-.60613E-3</BSTAR><MEAN_MOTION_DOT>-.212E-5</MEAN_MOTION_DOT><MEAN_MOTION_DDOT>0</MEAN_MOTION_DDOT></tleParameters></data></segment></body></omm>
<omm id="CCSDS_OMM_VERS" version="2.0">
<header><CREATION_DATE/><ORIGINATOR/></header><body><segment><metadata><OBJECT_NAME>ONEWEB-0191</OBJECT_NAME><OBJECT_ID>2021-031AF</OBJECT_ID><CENTER_NAME>EARTH</CENTER_NAME><REF_FRAME>TEME</REF_FRAME><TIME_SYSTEM>UTC</TIME_SYSTEM><MEAN_ELEMENT_THEORY>SGP4</MEAN_ELEMENT_THEORY></metadata><data><meanElements><EPOCH>2023-10-31T22:05:50.284896</EPOCH><MEAN_MOTION>13.14505432</MEAN_MOTION><ECCENTRICITY>.0001464</ECCENTRICITY><INCLINATION>87.8945</INCLINATION><RA_OF_ASC_NODE>120.6411</RA_OF_ASC_NODE><ARG_OF_PERICENTER>84.2249</ARG_OF_PERICENTER><MEAN_ANOMALY>275.9048</MEAN_ANOMALY></meanElements><tleParameters><EPHEMERIS_TYPE>0</EPHEMERIS_TYPE><CLASSIFICATION_TYPE>U</CLASSIFICATION_TYPE><NORAD_CAT_ID>48239</NORAD_CAT_ID><ELEMENT_SET_NO>999</ELEMENT_SET_NO><REV_AT_EPOCH>12214</REV_AT_EPOCH><BSTAR>-.21608E-3</BSTAR><MEAN_MOTION_DOT>-.67E-6</MEAN_MOTION_DOT><MEAN_MOTION_DDOT>0</MEAN_MOTION_DDOT></tleParameters></data></segment></body></omm>
<omm id="CCSDS_OMM_VERS" version="2.0">
<header><CREATION_DATE/><ORIGINATOR/></header><body><segment><metadata><OBJECT_NAME>ONEWEB-0195</OBJECT_NAME><OBJECT_ID>2021-031AG</OBJECT_ID><CENTER_NAME>EARTH</CENTER_NAME><REF_FRAME>TEME</REF_FRAME><TIME_SYSTEM>UTC</TIME_SYSTEM><MEAN_ELEMENT_THEORY>SGP4</MEAN_ELEMENT_THEORY></metadata><data><meanElements><EPOCH>2023-10-31T21:33:54.164448</EPOCH><MEAN_MOTION>13.14505922</MEAN_MOTION><ECCENTRICITY>.0001117</ECCENTRICITY><INCLINATION>87.8946</INCLINATION><RA_OF_ASC_NODE>120.6460</RA_OF_ASC_NODE><ARG_OF_PERICENTER>97.6213</ARG_OF_PERICENTER><MEAN_ANOMALY>262.5044</MEAN_ANOMALY></meanElements><tleParameters><EPHEMERIS_TYPE>0</EPHEMERIS_TYPE><CLASSIFICATION_TYPE>U</CLASSIFICATION_TYPE><NORAD_CAT_ID>48240</NORAD_CAT_ID><ELEMENT_SET_NO>999</ELEMENT_SET_NO><REV_AT_EPOCH>12212</REV_AT_EPOCH><BSTAR>-.56777E-3</BSTAR><MEAN_MOTION_DOT>-.198E-5</MEAN_MOTION_DOT><MEAN_MOTION_DDOT>0</MEAN_MOTION_DDOT></tleParameters></data></segment></body></omm>
<omm id="CCSDS_OMM_VERS" version="2.0">
<header><CREATION_DATE/><ORIGINATOR/></header><body><segment><metadata><OBJECT_NAME>ONEWEB-0201</OBJECT_NAME><OBJECT_ID>2021-031AH</OBJECT_ID><CENTER_NAME>EARTH</CENTER_NAME><REF_FRAME>TEME</REF_FRAME><TIME_SYSTEM>UTC</TIME_SYSTEM><MEAN_ELEMENT_THEORY>SGP4</MEAN_ELEMENT_THEORY></metadata><data><meanElements><EPOCH>2023-10-31T21:27:45.527616</EPOCH><MEAN_MOTION>13.14505118</MEAN_MOTION><ECCENTRICITY>.0001475</ECCENTRICITY><INCLINATION>87.8939</INCLINATION><RA_OF_ASC_NODE>120.6828</RA_OF_ASC_NODE><ARG_OF_PERICENTER>91.8413</ARG_OF_PERICENTER><MEAN_ANOMALY>268.2886</MEAN_ANOMALY></meanElements><tleParameters><EPHEMERIS_TYPE>0</EPHEMERIS_TYPE><CLASSIFICATION_TYPE>U</CLASSIFICATION_TYPE><NORAD_CAT_ID>48241</NORAD_CAT_ID><ELEMENT_SET_NO>999</ELEMENT_SET_NO><REV_AT_EPOCH>12235</REV_AT_EPOCH><BSTAR>-.58384E-3</BSTAR><MEAN_MOTION_DOT>-.204E-5</MEAN_MOTION_DOT><MEAN_MOTION_DDOT>0</MEAN_MOTION_DDOT></tleParameters></data></segment></body></omm>
<omm id="CCSDS_OMM_VERS" version="2.0">
<header><CREATION_DATE/><ORIGINATOR/></header><body><segment><metadata><OBJECT_NAME>ONEWEB-0207</OBJECT_NAME><OBJECT_ID>2021-031AJ</OBJECT_ID><CENTER_NAME>EARTH</CENTER_NAME><REF_FRAME>TEME</REF_FRAME><TIME_SYSTEM>UTC</TIME_SYSTEM><MEAN_ELEMENT_THEORY>SGP4</MEAN_ELEMENT_THEORY></metadata><data><meanElements><EPOCH>2023-10-31T20:51:16.751232</EPOCH><MEAN_MOTION>13.14502912</MEAN_MOTION><ECCENTRICITY>.0001682</ECCENTRICITY><INCLINATION>87.8939</INCLINATION><RA_OF_ASC_NODE>120.6556</RA_OF_ASC_NODE><ARG_OF_PERICENTER>94.5747</ARG_OF_PERICENTER><MEAN_ANOMALY>265.5575</MEAN_ANOMALY></meanElements><tleParameters><EPHEMERIS_TYPE>0</EPHEMERIS_TYPE><CLASSIFICATION_TYPE>U</CLASSIFICATION_TYPE><NORAD_CAT_ID>48242</NORAD_CAT_ID><ELEMENT_SET_NO>999</ELEMENT_SET_NO><REV_AT_EPOCH>12226</REV_AT_EPOCH><BSTAR>.66315E-3</BSTAR><MEAN_MOTION_DOT>.259E-5</MEAN_MOTION_DOT><MEAN_MOTION_DDOT>0</MEAN_MOTION_DDOT></tleParameters></data></segment></body></omm>
<omm id="CCSDS_OMM_VERS" version="2.0">
<header><CREATION_DATE/><ORIGINATOR/></header><body><segment><metadata><OBJECT_NAME>ONEWEB-0208</OBJECT_NAME><OBJECT_ID>2021-031AK</OBJECT_ID><CENTER_NAME>EARTH</CENTER_NAME><REF_FRAME>TEME</REF_FRAME><TIME_SYSTEM>UTC</TIME_SYSTEM><MEAN_ELEMENT_THEORY>SGP4</MEAN_ELEMENT_THEORY></metadata><data><meanElements><EPOCH>2023-10-31T22:08:54.330720</EPOCH><MEAN_MOTION>13.14502630</MEAN_MOTION><ECCENTRICITY>.0001293</ECCENTRICITY><INCLINATION>87.8934</INCLINATION><RA_OF_ASC_NODE>120.6603</RA_OF_ASC_NODE><ARG_OF_PERICENTER>94.6074</ARG_OF_PERICENTER><MEAN_ANOMALY>265.5203</MEAN_ANOMALY></meanElements><tleParameters><EPHEMERIS_TYPE>0</EPHEMERIS_TYPE><CLASSIFICATION_TYPE>U</CLASSIFICATION_TYPE><NORAD_CAT_ID>48243</NORAD_CAT_ID><ELEMENT_SET_NO>999</ELEMENT_SET_NO><REV_AT_EPOCH>12228</REV_AT_EPOCH><BSTAR>-.13559E-3</BSTAR><MEAN_MOTION_DOT>-.37E-6</MEAN_MOTION_DOT><MEAN_MOTION_DDOT>0</MEAN_MOTION_DDOT></tleParameters></data></segment></body></omm>

</ndm>
